{
    "week": 287,
    "satellites": [
        {
            "Name": "GSAT0101 (GALILEO-PFM)",
            "Line1": "1 37846U 11060A   24283.52073027 -.00000078  00000+0  00000+0 0  9995",
            "Line2": "2 37846  57.1241 358.4447 0000411 311.7581  48.2934  1.70475797 80620",
            "SatelliteNumber": "37846",
            "Classification": "U",
            "LaunchYear": "11",
            "LaunchNumber": "060",
            "PieceOfLaunch": "A",
            "EpochYear": "24",
            "EpochDay": 283.52073027,
            "FirstDerivativeMeanMotion": -7.8e-07,
            "SecondDerivativeMeanMotion": "00000+0",
            "BSTAR": "00000+0",
            "SetNumber": "999",
            "Inclination": 57.1241,
            "RAAN": 358.4447,
            "Eccentricity": 4.11e-05,
            "ArgumentOfPerigee": 311.7581,
            "MeanAnomaly": 48.2934,
            "MeanMotion": 1.70475797,
            "RevolutionNumber": "8062"
        },
        {
            "Name": "GSAT0102 (GALILEO-FM2)",
            "Line1": "1 37847U 11060B   24284.03983277 -.00000077  00000+0  00000+0 0  9999",
            "Line2": "2 37847  57.1246 358.4308 0002457 298.7368  65.3721  1.70475338 80648",
            "SatelliteNumber": "37847",
            "Classification": "U",
            "LaunchYear": "11",
            "LaunchNumber": "060",
            "PieceOfLaunch": "B",
            "EpochYear": "24",
            "EpochDay": 284.03983277,
            "FirstDerivativeMeanMotion": -7.7e-07,
            "SecondDerivativeMeanMotion": "00000+0",
            "BSTAR": "00000+0",
            "SetNumber": "999",
            "Inclination": 57.1246,
            "RAAN": 358.4308,
            "Eccentricity": 0.0002457,
            "ArgumentOfPerigee": 298.7368,
            "MeanAnomaly": 65.3721,
            "MeanMotion": 1.70475338,
            "RevolutionNumber": "8064"
        },
        {
            "Name": "GSAT0103 (GALILEO-FM3)",
            "Line1": "1 38857U 12055A   24281.80043375  .00000059  00000+0  00000+0 0  9993",
            "Line2": "2 38857  55.4567 118.5090 0002013 266.1422  93.9099  1.70473690 74487",
            "SatelliteNumber": "38857",
            "Classification": "U",
            "LaunchYear": "12",
            "LaunchNumber": "055",
            "PieceOfLaunch": "A",
            "EpochYear": "24",
            "EpochDay": 281.80043375,
            "FirstDerivativeMeanMotion": 5.9e-07,
            "SecondDerivativeMeanMotion": "00000+0",
            "BSTAR": "00000+0",
            "SetNumber": "999",
            "Inclination": 55.4567,
            "RAAN": 118.509,
            "Eccentricity": 0.0002013,
            "ArgumentOfPerigee": 266.1422,
            "MeanAnomaly": 93.9099,
            "MeanMotion": 1.7047369,
            "RevolutionNumber": "7448"
        },
        {
            "Name": "GSAT0201 (GALILEO 5)",
            "Line1": "1 40128U 14050A   24283.89254242 -.00000010  00000+0  00000+0 0  9990",
            "Line2": "2 40128  49.5419 298.4460 1614007 155.7361 212.8190  1.85519498 66903",
            "SatelliteNumber": "40128",
            "Classification": "U",
            "LaunchYear": "14",
            "LaunchNumber": "050",
            "PieceOfLaunch": "A",
            "EpochYear": "24",
            "EpochDay": 283.89254242,
            "FirstDerivativeMeanMotion": -1e-07,
            "SecondDerivativeMeanMotion": "00000+0",
            "BSTAR": "00000+0",
            "SetNumber": "999",
            "Inclination": 49.5419,
            "RAAN": 298.446,
            "Eccentricity": 0.1614007,
            "ArgumentOfPerigee": 155.7361,
            "MeanAnomaly": 212.819,
            "MeanMotion": 1.85519498,
            "RevolutionNumber": "6690"
        },
        {
            "Name": "GSAT0202 (GALILEO 6)",
            "Line1": "1 40129U 14050B   24284.15040994 -.00000008  00000+0  00000+0 0  9995",
            "Line2": "2 40129  49.5580 297.5140 1613187 156.5405 211.7500  1.85520210 69072",
            "SatelliteNumber": "40129",
            "Classification": "U",
            "LaunchYear": "14",
            "LaunchNumber": "050",
            "PieceOfLaunch": "B",
            "EpochYear": "24",
            "EpochDay": 284.15040994,
            "FirstDerivativeMeanMotion": -8e-08,
            "SecondDerivativeMeanMotion": "00000+0",
            "BSTAR": "00000+0",
            "SetNumber": "999",
            "Inclination": 49.558,
            "RAAN": 297.514,
            "Eccentricity": 0.1613187,
            "ArgumentOfPerigee": 156.5405,
            "MeanAnomaly": 211.75,
            "MeanMotion": 1.8552021,
            "RevolutionNumber": "6907"
        },
        {
            "Name": "GSAT0203 (GALILEO 7)",
            "Line1": "1 40544U 15017A   24283.88626966 -.00000078  00000+0  00000+0 0  9995",
            "Line2": "2 40544  56.9188 358.3531 0005102 246.9659 113.0350  1.70476198 58710",
            "SatelliteNumber": "40544",
            "Classification": "U",
            "LaunchYear": "15",
            "LaunchNumber": "017",
            "PieceOfLaunch": "A",
            "EpochYear": "24",
            "EpochDay": 283.88626966,
            "FirstDerivativeMeanMotion": -7.8e-07,
            "SecondDerivativeMeanMotion": "00000+0",
            "BSTAR": "00000+0",
            "SetNumber": "999",
            "Inclination": 56.9188,
            "RAAN": 358.3531,
            "Eccentricity": 0.0005102,
            "ArgumentOfPerigee": 246.9659,
            "MeanAnomaly": 113.035,
            "MeanMotion": 1.70476198,
            "RevolutionNumber": "5871"
        },
        {
            "Name": "GSAT0204 (GALILEO 8)",
            "Line1": "1 40545U 15017B   24282.96761633 -.00000078  00000+0  00000+0 0  9995",
            "Line2": "2 40545  56.9252 358.3942 0004824 233.0544 126.9567  1.70475838 21745",
            "SatelliteNumber": "40545",
            "Classification": "U",
            "LaunchYear": "15",
            "LaunchNumber": "017",
            "PieceOfLaunch": "B",
            "EpochYear": "24",
            "EpochDay": 282.96761633,
            "FirstDerivativeMeanMotion": -7.8e-07,
            "SecondDerivativeMeanMotion": "00000+0",
            "BSTAR": "00000+0",
            "SetNumber": "999",
            "Inclination": 56.9252,
            "RAAN": 358.3942,
            "Eccentricity": 0.0004824,
            "ArgumentOfPerigee": 233.0544,
            "MeanAnomaly": 126.9567,
            "MeanMotion": 1.70475838,
            "RevolutionNumber": "2174"
        },
        {
            "Name": "GSAT0205 (GALILEO 9)",
            "Line1": "1 40889U 15045A   24283.90891856  .00000025  00000+0  00000+0 0  9994",
            "Line2": "2 40889  55.1706 238.6007 0004128  16.9035 343.0936  1.70473007 56525",
            "SatelliteNumber": "40889",
            "Classification": "U",
            "LaunchYear": "15",
            "LaunchNumber": "045",
            "PieceOfLaunch": "A",
            "EpochYear": "24",
            "EpochDay": 283.90891856,
            "FirstDerivativeMeanMotion": 2.5e-07,
            "SecondDerivativeMeanMotion": "00000+0",
            "BSTAR": "00000+0",
            "SetNumber": "999",
            "Inclination": 55.1706,
            "RAAN": 238.6007,
            "Eccentricity": 0.0004128,
            "ArgumentOfPerigee": 16.9035,
            "MeanAnomaly": 343.0936,
            "MeanMotion": 1.70473007,
            "RevolutionNumber": "5652"
        },
        {
            "Name": "GSAT0206 (GALILEO 10)",
            "Line1": "1 40890U 15045B   24282.95638612  .00000026  00000+0  00000+0 0  9990",
            "Line2": "2 40890  55.1707 238.6222 0002403 353.1317   6.8468  1.70473098 56535",
            "SatelliteNumber": "40890",
            "Classification": "U",
            "LaunchYear": "15",
            "LaunchNumber": "045",
            "PieceOfLaunch": "B",
            "EpochYear": "24",
            "EpochDay": 282.95638612,
            "FirstDerivativeMeanMotion": 2.6e-07,
            "SecondDerivativeMeanMotion": "00000+0",
            "BSTAR": "00000+0",
            "SetNumber": "999",
            "Inclination": 55.1707,
            "RAAN": 238.6222,
            "Eccentricity": 0.0002403,
            "ArgumentOfPerigee": 353.1317,
            "MeanAnomaly": 6.8468,
            "MeanMotion": 1.70473098,
            "RevolutionNumber": "5653"
        },
        {
            "Name": "GSAT0209 (GALILEO 12)",
            "Line1": "1 41174U 15079A   24283.12622964  .00000061  00000+0  00000+0 0  9995",
            "Line2": "2 41174  55.4760 118.1828 0002358 356.2784   3.7922  1.70474184 54275",
            "SatelliteNumber": "41174",
            "Classification": "U",
            "LaunchYear": "15",
            "LaunchNumber": "079",
            "PieceOfLaunch": "A",
            "EpochYear": "24",
            "EpochDay": 283.12622964,
            "FirstDerivativeMeanMotion": 6.1e-07,
            "SecondDerivativeMeanMotion": "00000+0",
            "BSTAR": "00000+0",
            "SetNumber": "999",
            "Inclination": 55.476,
            "RAAN": 118.1828,
            "Eccentricity": 0.0002358,
            "ArgumentOfPerigee": 356.2784,
            "MeanAnomaly": 3.7922,
            "MeanMotion": 1.70474184,
            "RevolutionNumber": "5427"
        }
    ]
}